COMSATBW-1              
1 35943U 09054B   16341.12430145  .00000031  00000-0  00000+0 0  9990
2 35943   0.0535  94.7380 0003105 167.9049 280.4550  1.00272015 26364
NSS-12                  
1 36032U 09058A   16341.10810737  .00000078  00000-0  00000+0 0  9992
2 36032   0.0413  52.5362 0002441 197.4074 281.3307  1.00273716 26043
THOR 6                  
1 36033U 09058B   16340.74838661 -.00000003  00000-0  00000-0 0  9998
2 36033   0.0443 134.2867 0001803 133.5040  75.7658  1.00270567 26135
INTELSAT 14 (IS-14)     
1 36097U 09064A   16339.91894267 -.00000266  00000-0  00000+0 0  9996
2 36097   0.0166 303.1762 0002671 318.1844  98.6346  1.00272300 25803
EUTELSAT 36B            
1 36101U 09065A   16340.69663906  .00000163  00000-0  00000+0 0  9999
2 36101   0.0636 358.7456 0004597 259.8656 103.0217  1.00270465 25918
INTELSAT 15 (IS-15)     
1 36106U 09067A   16341.49195049 -.00000178  00000-0  00000+0 0  9990
2 36106   0.0096 335.8897 0002282 278.2515  83.8355  1.00270712 25706
DIRECTV 12              
1 36131U 09075A   16341.10605050 -.00000096  00000-0  00000+0 0  9992
2 36131   0.0430 153.6473 0000375 359.0295 218.0492  1.00271755 25494
BEIDOU G1               
1 36287U 10001A   16340.77527840 -.00000278  00000-0  10000-3 0  9994
2 36287   1.5336   8.1957 0005629 229.5308 256.3217  1.00266585 25272
RADUGA-1M 2             
1 36358U 10002A   16340.92387558 -.00000177  00000-0  00000-0 0  9995
2 36358   0.0108 300.5089 0002631 343.1282 209.1141  1.00270531 15212
SDO                     
1 36395U 10005A   16339.27911900 -.00000029  00000-0  00000+0 0  9994
2 36395  28.5569 143.9350 0001794 137.1905 151.3002  1.00272298 25117
INTELSAT 16 (IS-16)     
1 36397U 10006A   16341.21516652 -.00000278  00000-0  00000+0 0  9995
2 36397   0.0206  51.1929 0002313 241.9751 161.6357  1.00270555 24845
GOES 15                 
1 36411U 10008A   16341.16660436  .00000096  00000-0  00000+0 0  9995
2 36411   0.1880 267.4708 0001842 300.4259 152.1183  1.00273640 24792
ECHOSTAR 14             
1 36499U 10010A   16340.63606633  .00000007  00000-0  00000+0 0  9996
2 36499   0.0101 295.0442 0002978 317.9114 292.0103  1.00272267 24632
SES-1                   
1 36516U 10016A   16341.40725744 -.00000108  00000-0  00000+0 0  9996
2 36516   0.0170  10.4223 0001856 240.1725 230.6621  1.00271822 24249
ASTRA 3B                
1 36581U 10021A   16340.68194539  .00000144  00000-0  00000-0 0  9995
2 36581   0.0491 322.8956 0002988 295.9972  85.0065  1.00272962 23978
COMSATBW-2              
1 36582U 10021B   16341.17779918  .00000095  00000-0  00000+0 0  9995
2 36582   0.0466 283.2107 0002479 346.8762 242.5442  1.00269439 24095
BEIDOU G3               
1 36590U 10024A   16340.67710437 -.00000348  00000-0  00000-0 0  9995
2 36590   1.4107  28.5229 0006167 297.5623 103.1544  1.00268773 23883
BADR-5                  
1 36592U 10025A   16341.17651565  .00000152  00000-0  00000+0 0  9991
2 36592   0.0098  10.7412 0003914 212.4243 301.7807  1.00272848 24008
COMS 1                  
1 36744U 10032A   16340.84024828 -.00000337  00000-0  00000+0 0  9993
2 36744   0.0318  92.6193 0000724 167.6610 245.5064  1.00271235 23752
ARABSAT-5A              
1 36745U 10032B   16341.12679943  .00000160  00000-0  00000+0 0  9993
2 36745   0.0525   3.0171 0003085 250.9544 257.5193  1.00270026 23731
ECHOSTAR 15             
1 36792U 10034A   16341.44778471 -.00000275  00000-0  00000+0 0  9996
2 36792   0.0329  52.4562 0002477 214.9810 267.8080  1.00272074 23506
NILESAT 201             
1 36830U 10037A   16341.13256046 -.00000050  00000-0  00000+0 0  9998
2 36830   0.0523 152.0341 0003165  83.4922 240.5702  1.00272276 23395
RASCOM-QAF 1R           
1 36831U 10037B   16340.78328404  .00000026  00000-0  00000+0 0  9999
2 36831   0.0225   0.4091 0006737 260.3392  99.1755  1.00269742 23398
CHINASAT 6A (ZX 6A)     
1 37150U 10042A   16340.87182074 -.00000347  00000-0  00000-0 0  9999
2 37150   0.0082  96.0908 0000763 351.0622  66.8878  1.00272107 23003
QZS-1 (MICHIBIKI)       
1 37158U 10045A   16338.59079683 -.00000061  00000-0  00000+0 0  9999
2 37158  40.7604 162.1707 0745196 269.9187 351.7890  1.00278884 22796
XM-5                    
1 37185U 10053A   16341.05460815 -.00000198  00000-0  00000+0 0  9995
2 37185   0.0121 341.5915 0000389 123.2207 264.9249  1.00271210 22559
BSAT-3B                 
1 37207U 10056B   16340.92364558 -.00000344  00000-0  00000-0 0  9999
2 37207   0.0540 320.3058 0004641 326.5234 230.7182  1.00272135 17362
BEIDOU G4               
1 37210U 10057A   16340.84452208 -.00000105  00000-0  00000-0 0  9990
2 37210   0.7535  42.4281 0008204 182.0205 314.6236  1.00273199 22391
SKYTERRA 1              
1 37218U 10061A   16340.98494698 -.00000112  00000-0  00000+0 0  9994
2 37218   3.4641 328.5133 0003635 219.5723 140.4198  1.00271949 22332
ZHONGXING-20A           
1 37234U 10064A   16340.87626586 -.00000330  00000-0  00000-0 0  9999
2 37234   0.0557 257.3508 0003936  34.1127 229.1579  1.00273752 22137
HYLAS 1                 
1 37237U 10065A   16341.14355256 -.00000226  00000-0  00000+0 0  9990
2 37237   0.0288  14.0428 0001587 246.7893 192.7557  1.00272845 22112
INTELSAT 17 (IS-17)     
1 37238U 10065B   16341.11438817  .00000005  00000-0  00000+0 0  9997
2 37238   0.0138  75.5684 0002636 195.1303 271.8258  1.00271180 22020
EUTELSAT KA-SAT 9A      
1 37258U 10069A   16339.76926213  .00000070  00000-0  00000-0 0  9996
2 37258   0.0495 292.8306 0002784 324.7089 102.4549  1.00272828  9148
HISPASAT 1E             
1 37264U 10070A   16341.03416458 -.00000209  00000-0  00000+0 0  9997
2 37264   0.0645 111.5392 0003412 115.7128 190.3181  1.00270101 21778
KOREASAT 6              
1 37265U 10070B   16340.78880057 -.00000355  00000-0  00000+0 0  9991
2 37265   0.0173  42.5951 0001555 200.3121 232.0948  1.00271573 21789
ELEKTRO-L 1 (GOMS 2)    
1 37344U 11001A   16341.18331877 -.00000144  00000-0  00000+0 0  9996
2 37344   2.0460  78.5446 0003220 255.8052 148.1689  1.00249551 21572
BEIDOU IGSO 3           
1 37384U 11013A   16341.49327199 -.00000183  00000-0  10000-3 0  9997
2 37384  57.5857  74.9577 0026764 205.5682  92.4761  1.00261462 20784
INTELSAT NEW DAWN       
1 37392U 11016A   16340.05868466  .00000163  00000-0  00000+0 0  9999
2 37392   0.0407 134.5758 0001117 128.7883 224.9148  1.00275500 20616
YAHSAT 1A               
1 37393U 11016B   16341.11227749  .00000108  00000-0  00000+0 0  9990
2 37393   0.0122 291.8867 0002308 343.3362 253.0434  1.00271186 20661
TELSTAR 14R             
1 37602U 11021A   16340.43718906 -.00000273  00000-0  00000+0 0  9997
2 37602   0.0515  76.2111 0001793 180.0211 272.8359  1.00270778 20888
GSAT-8                  
1 37605U 11022A   16340.95746514  .00000092  00000-0  00000-0 0  9993
2 37605   0.0383 142.3704 0008345 119.2777 213.3016  1.00272116 18333
ST-2                    
1 37606U 11022B   16340.87786619 -.00000204  00000-0  00000+0 0  9990
2 37606   0.0134  47.7988 0001771 220.7383 210.6195  1.00270632 20351
CHINASAT 10 (ZX 10)     
1 37677U 11026A   16340.98264834 -.00000345  00000-0  00000+0 0  9990
2 37677   0.0031  29.2573 0005221 227.3531 282.8912  1.00270720 20077
TIANLIAN 1-02           
1 37737U 11032A   16341.55289883  .00000036  00000-0  00000+0 0  9995
2 37737   2.1996  78.3196 0009624 173.5737 199.6323  1.00271094 19832
GSAT-12                 
1 37746U 11034A   16340.92587994 -.00000158  00000-0  00000-0 0  9998
2 37746   0.0388 282.8904 0003945 214.7663 353.8037  1.00273258  8602
SES-3                   
1 37748U 11035A   16340.32561837 -.00000094  00000-0  00000+0 0  9991
2 37748   0.0405  68.0820 0002675 171.7757 208.9453  1.00271592 19793
KAZSAT-2                
1 37749U 11035B   16340.04304144 -.00000190  00000-0  00000-0 0  9995
2 37749   0.0056 311.9300 0001579 357.3992 226.9220  1.00269568 18492
ASTRA 1N                
1 37775U 11041A   16340.93399259  .00000127  00000-0  00000-0 0  9999
2 37775   0.0635  37.7983 0001398 287.9225 104.9123  1.00274354  9643
BSAT-3C (JCSAT-110R)    
1 37776U 11041B   16340.96602649 -.00000344  00000-0  00000-0 0  9995
2 37776   0.0165   7.4929 0000412 335.0127 190.4435  1.00271599 15605
PAKSAT-1R               
1 37779U 11042A   16341.18226065  .00000161  00000-0  00000+0 0  9993
2 37779   0.0153 110.4854 0002725 160.8380 267.6820  1.00273257 19388
CHINASAT 1A (ZX 1A)     
1 37804U 11047A   16339.81872200 -.00000330  00000-0  00000+0 0  9991
2 37804   0.0612  95.3350 0001456 216.0112 187.3251  1.00272864 19172
COSMOS 2473             
1 37806U 11048A   16341.17811047 -.00000100  00000-0  00000+0 0  9993
2 37806   0.0656 120.0174 0004125 169.1332 196.8881  1.00272032 19171
SES-2                   
1 37809U 11049A   16340.33935612 -.00000189  00000-0  00000+0 0  9996
2 37809   0.0129 341.7200 0002403 278.1412 209.9020  1.00271918 19115
ARABSAT-5C              
1 37810U 11049B   16340.93399248  .00000130  00000-0  00000-0 0  9999
2 37810   0.0632 352.1268 0002867 257.7365 181.5448  1.00272029 19168
EUTELSAT 7 WEST A       
1 37816U 11051A   16339.81440738 -.00000052  00000-0  00000+0 0  9997
2 37816   0.0798  42.5974 0005156 197.4839 119.8927  1.00272735 19060
QUETZSAT 1              
1 37826U 11054A   16340.38451103 -.00000234  00000-0  00000+0 0  9995
2 37826   0.0483  68.8312 0002400 180.7727 246.4596  1.00271171 19195
INTELSAT 18 (IS-18)     
1 37834U 11056A   16340.70701713  .00000060  00000-0  00000+0 0  9993
2 37834   0.0125 324.2683 0002026 297.8946 247.3157  1.00269125 18956
EUTELSAT 16A            
1 37836U 11057A   16340.76280519  .00000111  00000-0  00000+0 0  9995
2 37836   0.0645 352.8781 0005243 270.6212 102.0994  1.00273257 18890
VIASAT-1                
1 37843U 11059A   16340.63567869 -.00000017  00000-0  00000+0 0  9993
2 37843   0.0172 327.2909 0002274 284.8100 296.5243  1.00272843 19375
